ONEWEB-0492             
1 54114U 22138B   24222.64660648  .00000012  00000+0 -25220-5 0  9992
2 54114  87.9108  79.5754 0001477  79.8265 280.3035 13.19723728 87608
ONEWEB-0495             
1 54115U 22138C   24222.85194596  .00000095  00000+0  20545-3 0  9993
2 54115  87.9108  79.5459 0001252  55.9271 304.1980 13.19724901 87613
ONEWEB-0497             
1 54116U 22138D   24222.86458395  .00000150  00000+0  34302-3 0  9993
2 54116  87.9102  79.5290 0001641  81.4706 278.6612 13.19725410 87602
ONEWEB-0499             
1 54117U 22138E   24222.84719960  .00000133  00000+0  30105-3 0  9998
2 54117  87.9107  79.5363 0001987  69.1331 291.0014 13.19727022 87616
ONEWEB-0500             
1 54118U 22138F   24222.85036795  .00000155  00000+0  35361-3 0  9991
2 54118  87.9104  79.5301 0001675  84.0140 276.1183 13.19724715 87622
ONEWEB-0501             
1 54119U 22138G   24222.65293892  .00000051  00000+0  95219-4 0  9997
2 54119  87.9103  79.5673 0001426  64.9741 295.1540 13.19724517 87574
ONEWEB-0502             
1 54120U 22138H   24222.86616204  .00000136  00000+0  30739-3 0  9997
2 54120  87.9101  79.5130 0001666  70.9270 289.2043 13.19725211 87622
ONEWEB-0503             
1 54121U 22138J   24222.85510976  .00000091  00000+0  19608-3 0  9998
2 54121  87.9099  79.5215 0002140  76.7808 283.3563 13.19725052 87616
